NAVSTAR 71 (USA 256)    
1 40105U 14045A   26062.35011831  .00000016  00000+0  00000+0 0  9997
2 40105  55.2804  92.6803 0031529 120.5063 239.8766  2.00551390 83952
NAVSTAR 72 (USA 258)    
1 40294U 14068A   26062.22833176 -.00000074  00000+0  00000+0 0  9996
2 40294  56.9187  35.0371 0062747  68.0438 292.6092  2.00569742 83085
NAVSTAR 73 (USA 260)    
1 40534U 15013A   26062.35961980 -.00000013  00000+0  00000+0 0  9996
2 40534  53.1865 208.5527 0108741  39.7842 320.9512  2.00557636 79708
NAVSTAR 74 (USA 262)    
1 40730U 15033A   26062.52018166 -.00000008  00000+0  00000+0 0  9998
2 40730  54.0652 271.4414 0114474  28.9620 331.7017  2.00561598 77876
NAVSTAR 75 (USA 265)    
1 41019U 15062A   26062.08043406 -.00000074  00000+0  00000+0 0  9990
2 41019  56.8920  34.8990 0111459 231.4865 127.4993  2.00567044 75702
NAVSTAR 76 (USA 266)    
1 41328U 16007A   26062.66434739  .00000016  00000+0  00000+0 0  9995
2 41328  55.4551  93.6421 0095415 245.9853 113.0821  2.00556778 73725
NAVSTAR 77 (USA 289)    
1 43873U 18109A   26062.55311155  .00000019  00000+0  00000+0 0  9994
2 43873  55.6145  96.3528 0037895 198.2737 333.9980  2.00556711 52958
NAVSTAR 78 (USA 293)    
1 44506U 19056A   26062.19130605 -.00000098  00000+0  00000+0 0  9997
2 44506  55.6853 335.3576 0058023 198.1770 333.1087  2.00568213 47942
NAVSTAR 79 (USA 304)    
1 45854U 20041A   26062.27516370 -.00000078  00000+0  00000+0 0  9994
2 45854  56.6052  33.0526 0061365 205.2583 328.7601  2.00560606 41914
NAVSTAR 80 (USA 309)    
1 46826U 20078A   26062.80519442 -.00000007  00000+0  00000+0 0  9998
2 46826  54.0018 215.0499 0068191 204.2889 325.6484  2.00565522 39397
NAVSTAR 81 (USA 319)    
1 48859U 21054A   26062.49128030 -.00000100  00000+0  00000+0 0  9999
2 48859  55.2215 336.7106 0023864 232.0768 255.4185  2.00575580 34631
NAVSTAR 82 (USA 343)    
1 55268U 23009A   26062.25600392 -.00000002  00000+0  00000+0 0  9994
2 55268  55.1094 152.6829 0004614 335.9551  20.9517  2.00549255 23114
NAVSTAR 83 (USA 440)    
1 62339U 24242A   26059.41642148 -.00000100  00000+0  00000+0 0  9999
2 62339  54.8934 338.5934 0015681 355.9356 192.4850  2.00569355  9070
NAVSTAR 84 (USA 545)    
1 64202U 25116A   26062.39238152 -.00000077  00000+0  00000+0 0  9991
2 64202  55.1633  35.3874 0008474 325.1064  37.8908  2.00553198  5758
NAVSTAR 85 (USA 581)    
1 67588U 26017A   26062.00114749  .00000017  00000+0  00000+0 0  9998
2 67588  55.0177  93.0152 0001488  18.7586 341.3187  2.00560909429482
